{
  "norad_id": 60203,
  "name": "2024-125A",
  "history": [
    {
      "epoch": "2026-03-28T13:57:41.446944Z",
      "apogee_km": 402.8784317810505,
      "perigee_km": 385.918648281704,
      "latitude_deg": 4.531647516886101e-06,
      "longitude_deg": -91.11491094122913,
      "height_km": 404.5493479908302,
      "semi_major_axis_km": 6772.5355400313765,
      "eccentricity": 0.0012521,
      "inclination_deg": 97.242,
      "raan_deg": 304.3079,
      "arg_perigee_deg": 145.8419,
      "mean_anomaly_deg": 214.3645,
      "mean_motion_rev_day": 15.57671317
    },
    {
      "epoch": "2026-03-29T02:17:43.891296Z",
      "apogee_km": 402.6491081297254,
      "perigee_km": 385.768359154049,
      "latitude_deg": -7.144678737682241e-05,
      "longitude_deg": 83.89127385800418,
      "height_km": 404.1488703035288,
      "semi_major_axis_km": 6772.345733641887,
      "eccentricity": 0.0012463,
      "inclination_deg": 97.2416,
      "raan_deg": 304.8308,
      "arg_perigee_deg": 143.755,
      "mean_anomaly_deg": 216.4552,
      "mean_motion_rev_day": 15.57736802
    },
    {
      "epoch": "2026-03-30T01:25:13.050048Z",
      "apogee_km": 402.2747470493714,
      "perigee_km": 385.34893811222446,
      "latitude_deg": 5.6188285291508053e-05,
      "longitude_deg": 97.04966305275032,
      "height_km": 403.4482032068186,
      "semi_major_axis_km": 6771.948842580798,
      "eccentricity": 0.0012497,
      "inclination_deg": 97.2404,
      "raan_deg": 305.8104,
      "arg_perigee_deg": 140.2307,
      "mean_anomaly_deg": 219.9868,
      "mean_motion_rev_day": 15.57873748
    },
    {
      "epoch": "2026-03-30T01:25:13.050912Z",
      "apogee_km": 402.274543890906,
      "perigee_km": 385.34914127068987,
      "latitude_deg": 5.8403428139868884e-05,
      "longitude_deg": 97.04965916304324,
      "height_km": 403.4480470132773,
      "semi_major_axis_km": 6771.948842580798,
      "eccentricity": 0.00124967,
      "inclination_deg": 97.2404,
      "raan_deg": 305.8104,
      "arg_perigee_deg": 140.2307,
      "mean_anomaly_deg": 219.9868,
      "mean_motion_rev_day": 15.57873748
    },
    {
      "epoch": "2026-03-30T13:45:09.827424Z",
      "apogee_km": 402.128473385299,
      "perigee_km": 385.1111839100431,
      "latitude_deg": 6.0467225545722394e-05,
      "longitude_deg": -87.92138453195912,
      "height_km": 403.1338911668358,
      "semi_major_axis_km": 6771.756828647671,
      "eccentricity": 0.00125649,
      "inclination_deg": 97.24,
      "raan_deg": 306.3324,
      "arg_perigee_deg": 138.6084,
      "mean_anomaly_deg": 221.6127,
      "mean_motion_rev_day": 15.57940009
    },
    {
      "epoch": "2026-03-31T08:15:01.359072Z",
      "apogee_km": 401.86730293605433,
      "perigee_km": 384.82618694353823,
      "latitude_deg": 7.125826083485494e-05,
      "longitude_deg": -5.362171515589981,
      "height_km": 402.63825326888843,
      "semi_major_axis_km": 6771.483744939796,
      "eccentricity": 0.0012583,
      "inclination_deg": 97.24,
      "raan_deg": 307.116,
      "arg_perigee_deg": 136.3151,
      "mean_anomaly_deg": 223.9104,
      "mean_motion_rev_day": 15.58034254
    },
    {
      "epoch": "2026-04-01T08:54:44.463744Z",
      "apogee_km": 401.60938372782766,
      "perigee_km": 384.48100125370365,
      "latitude_deg": 6.975309668619816e-05,
      "longitude_deg": -15.25980400873877,
      "height_km": 402.008286830857,
      "semi_major_axis_km": 6771.182192490765,
      "eccentricity": 0.0012648,
      "inclination_deg": 97.2395,
      "raan_deg": 308.1608,
      "arg_perigee_deg": 132.9443,
      "mean_anomaly_deg": 227.2877,
      "mean_motion_rev_day": 15.58138335
    },
    {
      "epoch": "2026-04-02T08:01:52.699872Z",
      "apogee_km": 401.22260231747714,
      "perigee_km": 384.1490246780486,
      "latitude_deg": 2.516220023590017e-06,
      "longitude_deg": -2.014173429372988,
      "height_km": 401.29428762524344,
      "semi_major_axis_km": 6770.822813497763,
      "eccentricity": 0.00126082,
      "inclination_deg": 97.2394,
      "raan_deg": 309.1402,
      "arg_perigee_deg": 129.9451,
      "mean_anomaly_deg": 230.2915,
      "mean_motion_rev_day": 15.5826239
    }
  ]
}